NORAD_CAT_ID,OBJECT_NAME,OBJECT_TYPE,EPOCH,MEAN_MOTION,ECCENTRICITY,INCLINATION,RA_OF_ASC_NODE,ARG_OF_PERICENTER,MEAN_ANOMALY,BSTAR,MEAN_MOTION_DOT,MEAN_MOTION_DDOT,TLE_LINE0,TLE_LINE1,TLE_LINE2,SEMIMAJOR_AXIS,PERIOD,APOGEE,PERIGEE,DECAYED
52618.0,STARLINK-3983,PAYLOAD,2024-02-19 15:21:15,15.08843605,0.0001246,53.2173,31.7329,82.9866,277.1268,7.7693e-05,9.49e-06,0.0,0 STARLINK-3983,1 52618U 22052W   24050.63975741  .00000949  00000-0  77693-4 0  9994,2 52618  53.2173  31.7329 0001246  82.9866 277.1268 15.08843605 98282,6917.869,95.437,540.596,538.872,0.0
52618.0,STARLINK-3983,PAYLOAD,2024-02-19 23:18:11,15.08832979,0.0001998,53.2197,30.2488,103.2601,256.8614,1.0489e-05,-1.21e-06,0.0,0 STARLINK-3983,1 52618U 22052W   24050.97096713 -.00000121  00000-0  10489-4 0  9997,2 52618  53.2197  30.2488 0001998 103.2601 256.8614 15.08832979 97950,6917.902,95.438,541.149,538.385,0.0
52618.0,STARLINK-3983,PAYLOAD,2024-02-20 04:04:21,15.08831427,0.0001759,53.2205,29.359,102.7771,257.3418,-1.7844e-06,-3.16e-06,0.0,0 STARLINK-3983,1 52618U 22052W   24051.16968923 -.00000316  00000-0 -17844-5 0  9990,2 52618  53.2205  29.3590 0001759 102.7771 257.3418 15.08831427 98361,6917.907,95.438,540.988,538.555,0.0
52618.0,STARLINK-3983,PAYLOAD,2024-02-20 05:39:44,15.08833545,0.0001698,53.2199,29.063,104.0113,256.1068,2.5196e-05,1.13e-06,0.0,0 STARLINK-3983,1 52618U 22052W   24051.23592775  .00000113  00000-0  25196-4 0  9997,2 52618  53.2199  29.0630 0001698 104.0113 256.1068 15.08833545 97991,6917.9,95.438,540.94,538.59,0.0
52618.0,STARLINK-3983,PAYLOAD,2024-02-20 15:12:02,15.08834993,0.0001636,53.2199,27.2785,108.3729,251.7441,3.1231e-05,2.09e-06,0.0,0 STARLINK-3983,1 52618U 22052W   24051.63336775  .00000209  00000-0  31231-4 0  9990,2 52618  53.2199  27.2785 0001636 108.3729 251.7441 15.08834993 98056,6917.896,95.438,540.892,538.629,0.0
52618.0,STARLINK-3983,PAYLOAD,2024-02-21 03:55:07,15.08843478,0.0001576,53.2193,24.8996,103.549,256.5677,0.00017863,2.556e-05,0.0,0 STARLINK-3983,1 52618U 22052W   24052.16328054  .00002556  00000-0  17863-3 0  9991,2 52618  53.2193  24.8996 0001576 103.5490 256.5677 15.08843478 98515,6917.87,95.437,540.825,538.645,0.0
52618.0,STARLINK-3983,PAYLOAD,2024-02-21 05:30:30,15.0884681,0.0001387,53.2195,24.6025,88.5979,271.5172,0.00021324,3.108e-05,0.0,0 STARLINK-3983,1 52618U 22052W   24052.22951913  .00003108  00000-0  21324-3 0  9995,2 52618  53.2195  24.6025 0001387  88.5979 271.5172 15.08846810 98141,6917.86,95.437,540.684,538.765,0.0
52618.0,STARLINK-3983,PAYLOAD,2024-02-21 15:02:49,15.0884801,0.0001333,53.2168,22.8143,81.4528,278.6615,0.00013235,1.82e-05,0.0,0 STARLINK-3983,1 52618U 22052W   24052.62695798  .00001820  00000-0  13235-3 0  9996,2 52618  53.2168  22.8143 0001333  81.4528 278.6615 15.08848010 98206,6917.856,95.437,540.643,538.799,0.0
52618.0,STARLINK-3983,PAYLOAD,2024-02-22 03:45:56,15.08811156,0.0001459,53.2169,20.4354,82.9238,277.192,-0.00030061,-5.065e-05,0.0,0 STARLINK-3983,1 52618U 22052W   24053.15689935 -.00005065  00000-0 -30061-3 0  9994,2 52618  53.2169  20.4354 0001459  82.9238 277.1920 15.08811156 98662,6917.969,95.439,540.843,538.824,0.0
52618.0,STARLINK-3983,PAYLOAD,2024-02-22 06:56:42,15.0881127,0.0001531,53.2173,19.8412,81.327,278.7896,-0.00027646,-4.682e-05,0.0,0 STARLINK-3983,1 52618U 22052W   24053.28938184 -.00004682  00000-0 -27646-3 0  9990,2 52618  53.2173  19.8412 0001531  81.3270 278.7896 15.08811270 98301,6917.968,95.439,540.892,538.774,0.0
52618.0,STARLINK-3983,PAYLOAD,2024-02-22 14:53:38,15.08820774,0.0001433,53.2172,18.3546,86.6007,273.5149,-0.00010026,-1.882e-05,0.0,0 STARLINK-3983,1 52618U 22052W   24053.62058206 -.00001882  00000-0 -10026-3 0  9999,2 52618  53.2172  18.3546 0001433  86.6007 273.5149 15.08820774 98739,6917.939,95.439,540.795,538.813,0.0
52618.0,STARLINK-3983,PAYLOAD,2024-02-23 03:36:43,15.08836348,0.0001711,53.2174,15.9774,78.6696,281.4489,0.00019108,2.754e-05,0.0,0 STARLINK-3983,1 52618U 22052W   24054.15049910  .00002754  00000-0  19108-3 0  9997,2 52618  53.2174  15.9774 0001711  78.6696 281.4489 15.08836348 98819,6917.892,95.438,540.94,538.573,0.0
52618.0,STARLINK-3983,PAYLOAD,2024-02-23 14:44:25,15.0886076,0.000166,53.2173,13.8928,88.1161,272.0021,0.001418,0.00022364,0.0,0 STARLINK-3983,1 52618U 22052W   24054.61417893  .00022364  00000-0  14180-2 0  9990,2 52618  53.2173  13.8928 0001660  88.1161 272.0021 15.08860760 98501,6917.817,95.436,540.83,538.534,0.0
52618.0,STARLINK-3983,PAYLOAD,2024-02-24 14:35:11,15.08856467,0.0002191,53.2176,9.4337,87.6501,272.4742,0.0007303,0.00011359,0.0,0 STARLINK-3983,1 52618U 22052W   24055.60776999  .00011359  00000-0  73030-3 0  9997,2 52618  53.2176   9.4337 0002191  87.6501 272.4742 15.08856467 98650,6917.83,95.437,541.211,538.179,0.0
52618.0,STARLINK-3983,PAYLOAD,2024-02-24 20:56:43,15.08855019,0.0002018,53.2185,8.2434,95.2204,264.9018,0.00088251,0.00013791,0.0,0 STARLINK-3983,1 52618U 22052W   24055.87272734  .00013791  00000-0  88251-3 0  9997,2 52618  53.2185   8.2434 0002018  95.2204 264.9018 15.08855019 99079,6917.834,95.437,541.096,538.303,0.0
52618.0,STARLINK-3983,PAYLOAD,2024-02-25 03:18:15,15.08860606,0.0001659,53.2184,7.0542,100.487,259.6309,0.00058909,9.105e-05,0.0,0 STARLINK-3983,1 52618U 22052W   24056.13768324  .00009105  00000-0  58909-3 0  9993,2 52618  53.2184   7.0542 0001659 100.4870 259.6309 15.08860606 98737,6917.817,95.436,540.83,538.535,0.0
52618.0,STARLINK-3983,PAYLOAD,2024-02-25 20:47:30,15.08851421,0.000195,53.2189,3.7869,76.6732,283.4478,0.00052886,8.141e-05,0.0,0 STARLINK-3983,1 52618U 22052W   24056.86632539  .00008141  00000-0  52886-3 0  9998,2 52618  53.2189   3.7869 0001950  76.6732 283.4478 15.08851421 99224,6917.845,95.437,541.059,538.361,0.0
52618.0,STARLINK-3983,PAYLOAD,2024-02-26 06:19:48,15.08860909,0.0001415,53.2175,1.9982,87.5048,272.6107,0.00028019,4.177e-05,0.0,0 STARLINK-3983,1 52618U 22052W   24057.26375638  .00004177  00000-0  28019-3 0  9993,2 52618  53.2175   1.9982 0001415  87.5048 272.6107 15.08860909 98906,6917.816,95.436,540.66,538.703,0.0
52618.0,STARLINK-3983,PAYLOAD,2024-02-27 02:59:50,15.08834727,0.0001788,53.219,358.1374,114.5805,245.5374,-3.9648e-05,-9.19e-06,0.0,0 STARLINK-3983,1 52618U 22052W   24058.12488735 -.00000919  00000-0 -39648-4 0  9995,2 52618  53.2190 358.1374 0001788 114.5805 245.5374 15.08834727 99411,6917.897,95.438,540.998,538.525,0.0
52618.0,STARLINK-3983,PAYLOAD,2024-02-27 12:32:09,15.08835684,0.0001486,53.2181,356.3516,93.842,266.2742,5.2577e-05,5.49e-06,0.0,0 STARLINK-3983,1 52618U 22052W   24058.52233051  .00000549  00000-0  52577-4 0  9991,2 52618  53.2181 356.3516 0001486  93.8420 266.2742 15.08835684 99092,6917.894,95.438,540.787,538.731,0.0
52618.0,STARLINK-3983,PAYLOAD,2024-02-28 02:50:38,15.08829286,0.0001254,53.2175,353.6722,87.2906,272.823,0.00024615,3.631e-05,0.0,0 STARLINK-3983,1 52618U 22052W   24059.11850093  .00003631  00000-0  24615-3 0  9994,2 52618  53.2175 353.6722 0001254  87.2906 272.8230 15.08829286 99561,6917.913,95.438,540.646,538.911,0.0
52618.0,STARLINK-3983,PAYLOAD,2024-02-28 12:22:57,15.08833259,0.0001317,53.2178,351.8884,102.6098,257.5041,0.00046109,7.057e-05,0.0,0 STARLINK-3983,1 52618U 22052W   24059.51594363  .00007057  00000-0  46109-3 0  9991,2 52618  53.2178 351.8884 0001317 102.6098 257.5041 15.08833259 99247,6917.901,95.438,540.677,538.855,0.0
52618.0,STARLINK-3983,PAYLOAD,2024-02-28 18:44:30,15.08838706,0.0001381,53.2184,350.6995,98.352,261.7628,0.00041816,6.373e-05,0.0,0 STARLINK-3983,1 52618U 22052W   24059.78090528  .00006373  00000-0  41816-3 0  9994,2 52618  53.2184 350.6995 0001381  98.3520 261.7628 15.08838706 99280,6917.884,95.438,540.705,538.794,0.0
52618.0,STARLINK-3983,PAYLOAD,2024-02-29 02:41:25,15.088629,0.0001183,53.2171,349.213,94.9268,265.1859,0.00087932,0.00013743,0.0,0 STARLINK-3983,1 52618U 22052W   24060.11209645  .00013743  00000-0  87932-3 0  9993,2 52618  53.2171 349.2130 0001183  94.9268 265.1859 15.08862900 99717,6917.81,95.436,540.494,538.857,0.0
52618.0,STARLINK-3983,PAYLOAD,2024-02-29 12:13:43,15.08858552,0.0001403,53.2193,347.4303,94.1007,266.0145,0.00045464,6.959e-05,0.0,0 STARLINK-3983,1 52618U 22052W   24060.50953256  .00006959  00000-0  45464-3 0  9995,2 52618  53.2193 347.4303 0001403  94.1007 266.0145 15.08858552 99773,6917.824,95.436,540.659,538.718,0.0
52618.0,STARLINK-3983,PAYLOAD,2024-03-01 02:32:11,15.08851288,0.0001294,53.2172,344.7556,83.4091,276.7048,0.00026652,3.958e-05,0.0,0 STARLINK-3983,1 52618U 22052W   24061.10569219  .00003958  00000-0  26652-3 0  9998,2 52618  53.2172 344.7556 0001294  83.4091 276.7048 15.08851288 99861,6917.846,95.437,540.606,538.816,0.0
52618.0,STARLINK-3983,PAYLOAD,2024-03-02 00:47:35,15.08856557,0.0001394,53.2166,340.5922,78.0987,282.0162,0.00077936,0.00012143,0.0,0 STARLINK-3983,1 52618U 22052W   24062.03305086  .00012143  00000-0  77936-3 0  9998,2 52618  53.2166 340.5922 0001394  78.0987 282.0162 15.08856557100000,6917.83,95.437,540.659,538.73,0.0
52618.0,STARLINK-3983,PAYLOAD,2024-03-02 21:27:36,15.08846871,0.0001982,53.2171,336.724,113.0006,247.1196,0.00068322,0.00010604,0.0,0 STARLINK-3983,1 52618U 22052W   24062.89416983  .00010604  00000-0  68322-3 0  9990,2 52618  53.2171 336.7240 0001982 113.0006 247.1196 15.08846871 99757,6917.859,95.437,541.096,538.353,0.0
52618.0,STARLINK-3983,PAYLOAD,2024-03-03 03:49:08,15.08843727,0.0001589,53.2164,335.5309,67.0125,293.1034,0.00012619,1.721e-05,0.0,0 STARLINK-3983,1 52618U 22052W   24063.15913147  .00001721  00000-0  12619-3 0  9992,2 52618  53.2164 335.5309 0001589  67.0125 293.1034 15.08843727100173,6917.869,95.437,540.833,538.635,0.0
52618.0,STARLINK-3983,PAYLOAD,2024-03-03 21:18:22,15.0885619,0.000141,53.2177,332.2566,104.5257,255.5892,0.00012454,1.696e-05,0.0,0 STARLINK-3983,1 52618U 22052W   24063.88776506  .00001696  00000-0  12454-3 0  9996,2 52618  53.2177 332.2566 0001410 104.5257 255.5892 15.08856190 99902,6917.831,95.437,540.671,538.72,0.0
